STARLINK-32698          
1 62312U 24239M   26068.58475881  .00035706  00000+0  12139-2 0  9990
2 62312  53.1585 194.7038 0001180  95.0575 265.0560 15.30145167 69367
TRANSPORTER-12 OBJECT AZ
1 62656U 25009AZ  26068.71026235  .00016057  00000+0  54903-3 0  9991
2 62656  97.3981 151.9913 0000987  45.3581 314.7740 15.30349724 63792
