[{"OBJECT_NAME":"STARLINK-32698","OBJECT_ID":"2024-239M","EPOCH":"2026-03-09T14:02:03.161184","MEAN_MOTION":15.30145167,"ECCENTRICITY":0.000118,"INCLINATION":53.1585,"RA_OF_ASC_NODE":194.7038,"ARG_OF_PERICENTER":95.0575,"MEAN_ANOMALY":265.056,"EPHEMERIS_TYPE":0,"CLASSIFICATION_TYPE":"U","NORAD_CAT_ID":62312,"ELEMENT_SET_NO":999,"REV_AT_EPOCH":6936,"BSTAR":0.0012139,"MEAN_MOTION_DOT":0.00035706,"MEAN_MOTION_DDOT":0},{"OBJECT_NAME":"TRANSPORTER-12 OBJECT AZ","OBJECT_ID":"2025-009AZ","EPOCH":"2026-03-09T17:02:46.667040","MEAN_MOTION":15.30349724,"ECCENTRICITY":9.87e-5,"INCLINATION":97.3981,"RA_OF_ASC_NODE":151.9913,"ARG_OF_PERICENTER":45.3581,"MEAN_ANOMALY":314.774,"EPHEMERIS_TYPE":0,"CLASSIFICATION_TYPE":"U","NORAD_CAT_ID":62656,"ELEMENT_SET_NO":999,"REV_AT_EPOCH":6379,"BSTAR":0.00054902545,"MEAN_MOTION_DOT":0.00016057,"MEAN_MOTION_DDOT":0}]
